{
  "type": "FeatureCollection",
  "features": [
    {
      "type": "Feature",
      "properties": {
        "norad_id": 34681,
        "name": "COSMOS 2251 DEB",
        "group": "cosmos-2251-debris",
        "lat": -13.667562069136064,
        "lon": 105.06293280232155,
        "alt_km": 637.4251136721405,
        "timestamp": "2025-12-17T10:52:54.747260+00:00",
        "meta_object_name": "COSMOS 2251 DEB",
        "meta_object_id": "1993-036YB",
        "meta_epoch": "2025-12-16T21:23:05.957088",
        "meta_mean_motion": 14.8331548,
        "meta_eccentricity": 0.00256208,
        "meta_inclination": 74.0629,
        "meta_ra_of_asc_node": 282.1896,
        "meta_arg_of_pericenter": 338.4637,
        "meta_mean_anomaly": 94.0534,
        "meta_ephemeris_type": 0,
        "meta_classification_type": "U",
        "meta_norad_cat_id": 34681,
        "meta_element_set_no": 999,
        "meta_rev_at_epoch": 89332,
        "meta_bstar": 0.0011706716,
        "meta_mean_motion_dot": 9.621e-05,
        "meta_mean_motion_ddot": 0,
        "tle_line1": "1 34681U 93036YB  25350.89104117  .00009621  00000+0  11707-2 0  9994",
        "tle_line2": "2 34681  74.0629 282.1896 0025620 338.4637  94.0534 14.83315480893324"
      },
      "geometry": {
        "type": "Point",
        "coordinates": [
          105.06293280232155,
          -13.667562069136064
        ]
      }
    },
    {
      "type": "Feature",
      "properties": {
        "norad_id": 34682,
        "name": "COSMOS 2251 DEB",
        "group": "cosmos-2251-debris",
        "lat": -68.52878614763047,
        "lon": -59.30503571538102,
        "alt_km": 695.0960222324302,
        "timestamp": "2025-12-17T10:52:54.747270+00:00",
        "meta_object_name": "COSMOS 2251 DEB",
        "meta_object_id": "1993-036YC",
        "meta_epoch": "2025-12-16T12:24:01.658304",
        "meta_mean_motion": 14.58923875,
        "meta_eccentricity": 0.00181746,
        "meta_inclination": 74.0401,
        "meta_ra_of_asc_node": 75.7947,
        "meta_arg_of_pericenter": 208.4541,
        "meta_mean_anomaly": 169.0262,
        "meta_ephemeris_type": 0,
        "meta_classification_type": "U",
        "meta_norad_cat_id": 34682,
        "meta_element_set_no": 999,
        "meta_rev_at_epoch": 88741,
        "meta_bstar": 0.00054857307,
        "meta_mean_motion_dot": 2.548e-05,
        "meta_mean_motion_ddot": 0,
        "tle_line1": "1 34682U 93036YC  25350.51668586  .00002548  00000+0  54857-3 0  9994",
        "tle_line2": "2 34682  74.0401  75.7947 0018174 208.4541 169.0262 14.58923875887411"
      },
      "geometry": {
        "type": "Point",
        "coordinates": [
          -59.30503571538102,
          -68.52878614763047
        ]
      }
    },
    {
      "type": "Feature",
      "properties": {
        "norad_id": 34683,
        "name": "COSMOS 2251 DEB",
        "group": "cosmos-2251-debris",
        "lat": 35.550593061198285,
        "lon": -108.60484556866567,
        "alt_km": 668.5460629318386,
        "timestamp": "2025-12-17T10:52:54.747280+00:00",
        "meta_object_name": "COSMOS 2251 DEB",
        "meta_object_id": "1993-036YD",
        "meta_epoch": "2025-12-16T16:44:52.401408",
        "meta_mean_motion": 14.64541526,
        "meta_eccentricity": 0.00179666,
        "meta_inclination": 74.0296,
        "meta_ra_of_asc_node": 84.6565,
        "meta_arg_of_pericenter": 199.7117,
        "meta_mean_anomaly": 281.0939,
        "meta_ephemeris_type": 0,
        "meta_classification_type": "U",
        "meta_norad_cat_id": 34683,
        "meta_element_set_no": 999,
        "meta_rev_at_epoch": 88406,
        "meta_bstar": 0.00092874432,
        "meta_mean_motion_dot": 4.91e-05,
        "meta_mean_motion_ddot": 0,
        "tle_line1": "1 34683U 93036YD  25350.69782872  .00004910  00000+0  92874-3 0  9995",
        "tle_line2": "2 34683  74.0296  84.6565 0017966 199.7117 281.0939 14.64541526884068"
      },
      "geometry": {
        "type": "Point",
        "coordinates": [
          -108.60484556866567,
          35.550593061198285
        ]
      }
    },
    {
      "type": "Feature",
      "properties": {
        "norad_id": 34685,
        "name": "COSMOS 2251 DEB",
        "group": "cosmos-2251-debris",
        "lat": 4.823745323164855,
        "lon": -41.564884273283354,
        "alt_km": 699.4489910250959,
        "timestamp": "2025-12-17T10:52:54.747291+00:00",
        "meta_object_name": "COSMOS 2251 DEB",
        "meta_object_id": "1993-036YF",
        "meta_epoch": "2025-12-16T21:28:53.311872",
        "meta_mean_motion": 14.57545889,
        "meta_eccentricity": 0.00142652,
        "meta_inclination": 74.0286,
        "meta_ra_of_asc_node": 140.8813,
        "meta_arg_of_pericenter": 245.0641,
        "meta_mean_anomaly": 241.3979,
        "meta_ephemeris_type": 0,
        "meta_classification_type": "U",
        "meta_norad_cat_id": 34685,
        "meta_element_set_no": 999,
        "meta_rev_at_epoch": 88592,
        "meta_bstar": 0.00082259479,
        "meta_mean_motion_dot": 3.72e-05,
        "meta_mean_motion_ddot": 0,
        "tle_line1": "1 34685U 93036YF  25350.89506148  .00003720  00000+0  82259-3 0  9993",
        "tle_line2": "2 34685  74.0286 140.8813 0014265 245.0641 241.3979 14.57545889885923"
      },
      "geometry": {
        "type": "Point",
        "coordinates": [
          -41.564884273283354,
          4.823745323164855
        ]
      }
    },
    {
      "type": "Feature",
      "properties": {
        "norad_id": 34689,
        "name": "COSMOS 2251 DEB",
        "group": "cosmos-2251-debris",
        "lat": -14.794091864393769,
        "lon": 39.51588213014798,
        "alt_km": 872.2255623036372,
        "timestamp": "2025-12-17T10:52:54.747306+00:00",
        "meta_object_name": "COSMOS 2251 DEB",
        "meta_object_id": "1993-036YK",
        "meta_epoch": "2025-12-15T15:20:16.539648",
        "meta_mean_motion": 14.04491905,
        "meta_eccentricity": 0.02275051,
        "meta_inclination": 74.0901,
        "meta_ra_of_asc_node": 218.3502,
        "meta_arg_of_pericenter": 286.6099,
        "meta_mean_anomaly": 101.262,
        "meta_ephemeris_type": 0,
        "meta_classification_type": "U",
        "meta_norad_cat_id": 34689,
        "meta_element_set_no": 999,
        "meta_rev_at_epoch": 84382,
        "meta_bstar": 0.0020174062,
        "meta_mean_motion_dot": 4.031e-05,
        "meta_mean_motion_ddot": 0,
        "tle_line1": "1 34689U 93036YK  25349.63908032  .00004031  00000+0  20174-2 0  9998",
        "tle_line2": "2 34689  74.0901 218.3502 0227505 286.6099 101.2620 14.04491905843829"
      },
      "geometry": {
        "type": "Point",
        "coordinates": [
          39.51588213014798,
          -14.794091864393769
        ]
      }
    },
    {
      "type": "Feature",
      "properties": {
        "norad_id": 34721,
        "name": "COSMOS 2251 DEB",
        "group": "cosmos-2251-debris",
        "lat": 72.0791153964697,
        "lon": 74.97995818961144,
        "alt_km": 1047.8975617676297,
        "timestamp": "2025-12-17T10:52:54.747316+00:00",
        "meta_object_name": "COSMOS 2251 DEB",
        "meta_object_id": "1993-036YP",
        "meta_epoch": "2025-12-16T09:23:35.751264",
        "meta_mean_motion": 13.96869832,
        "meta_eccentricity": 0.02234243,
        "meta_inclination": 73.923,
        "meta_ra_of_asc_node": 319.9132,
        "meta_arg_of_pericenter": 258.2136,
        "meta_mean_anomaly": 262.1516,
        "meta_ephemeris_type": 0,
        "meta_classification_type": "U",
        "meta_norad_cat_id": 34721,
        "meta_element_set_no": 999,
        "meta_rev_at_epoch": 85200,
        "meta_bstar": 0.00097212088,
        "meta_mean_motion_dot": 1.644e-05,
        "meta_mean_motion_ddot": 0,
        "tle_line1": "1 34721U 93036YP  25350.39138601  .00001644  00000+0  97212-3 0  9992",
        "tle_line2": "2 34721  73.9230 319.9132 0223424 258.2136 262.1516 13.96869832852008"
      },
      "geometry": {
        "type": "Point",
        "coordinates": [
          74.97995818961144,
          72.0791153964697
        ]
      }
    },
    {
      "type": "Feature",
      "properties": {
        "norad_id": 34722,
        "name": "COSMOS 2251 DEB",
        "group": "cosmos-2251-debris",
        "lat": -37.524278699318366,
        "lon": 160.49874163607885,
        "alt_km": 757.0255855946862,
        "timestamp": "2025-12-17T10:52:54.747326+00:00",
        "meta_object_name": "COSMOS 2251 DEB",
        "meta_object_id": "1993-036YQ",
        "meta_epoch": "2025-12-16T23:55:00.494400",
        "meta_mean_motion": 14.1194859,
        "meta_eccentricity": 0.01669308,
        "meta_inclination": 73.8729,
        "meta_ra_of_asc_node": 328.4746,
        "meta_arg_of_pericenter": 253.2939,
        "meta_mean_anomaly": 165.5826,
        "meta_ephemeris_type": 0,
        "meta_classification_type": "U",
        "meta_norad_cat_id": 34722,
        "meta_element_set_no": 999,
        "meta_rev_at_epoch": 86305,
        "meta_bstar": 0.00064338859,
        "meta_mean_motion_dot": 1.315e-05,
        "meta_mean_motion_ddot": 0,
        "tle_line1": "1 34722U 93036YQ  25350.99653350  .00001315  00000+0  64339-3 0  9991",
        "tle_line2": "2 34722  73.8729 328.4746 0166930 253.2939 165.5826 14.11948590863055"
      },
      "geometry": {
        "type": "Point",
        "coordinates": [
          160.49874163607885,
          -37.524278699318366
        ]
      }
    }
  ]
}